{
  "type": "FeatureCollection",
  "features": [
    {
      "type": "Feature",
      "properties": {
        "norad_id": 66570,
        "name": "STARLINK-35834",
        "group": "last-30-days",
        "lat": -13.659180406943367,
        "lon": -56.63799868836811,
        "alt_km": 415.55396148434465,
        "timestamp": "2025-12-14T22:38:39.516903+00:00",
        "meta_object_name": "STARLINK-35834",
        "meta_object_id": "2025-268P",
        "meta_epoch": "2025-12-14T01:41:19.305312",
        "meta_mean_motion": 15.50576335,
        "meta_eccentricity": 0.000178,
        "meta_inclination": 43,
        "meta_ra_of_asc_node": 113.3541,
        "meta_arg_of_pericenter": 270.789,
        "meta_mean_anomaly": 89.2766,
        "meta_ephemeris_type": 0,
        "meta_classification_type": "U",
        "meta_norad_cat_id": 66570,
        "meta_element_set_no": 999,
        "meta_rev_at_epoch": 483,
        "meta_bstar": 0.0018814998,
        "meta_mean_motion_dot": 0.00111614,
        "meta_mean_motion_ddot": 0,
        "tle_line1": "1 66570U 25268P   25348.07036233  .00111614  00000+0  18815-2 0  9991",
        "tle_line2": "2 66570  43.0000 113.3541 0001780 270.7890  89.2766 15.50576335  4833"
      },
      "geometry": {
        "type": "Point",
        "coordinates": [
          -56.63799868836811,
          -13.659180406943367
        ]
      }
    },
    {
      "type": "Feature",
      "properties": {
        "norad_id": 66571,
        "name": "STARLINK-35836",
        "group": "last-30-days",
        "lat": -14.954858594448888,
        "lon": -55.102111909605334,
        "alt_km": 415.85644596686143,
        "timestamp": "2025-12-14T22:38:39.516913+00:00",
        "meta_object_name": "STARLINK-35836",
        "meta_object_id": "2025-268Q",
        "meta_epoch": "2025-12-14T01:40:49.941408",
        "meta_mean_motion": 15.50580652,
        "meta_eccentricity": 9.399e-05,
        "meta_inclination": 42.9994,
        "meta_ra_of_asc_node": 113.352,
        "meta_arg_of_pericenter": 285.401,
        "meta_mean_anomaly": 74.6746,
        "meta_ephemeris_type": 0,
        "meta_classification_type": "U",
        "meta_norad_cat_id": 66571,
        "meta_element_set_no": 999,
        "meta_rev_at_epoch": 483,
        "meta_bstar": 0.0021570384,
        "meta_mean_motion_dot": 0.00128303,
        "meta_mean_motion_ddot": 0,
        "tle_line1": "1 66571U 25268Q   25348.07002247  .00128303  00000+0  21570-2 0  9995",
        "tle_line2": "2 66571  42.9994 113.3520 0000939 285.4010  74.6746 15.50580652  4836"
      },
      "geometry": {
        "type": "Point",
        "coordinates": [
          -55.102111909605334,
          -14.954858594448888
        ]
      }
    },
    {
      "type": "Feature",
      "properties": {
        "norad_id": 66572,
        "name": "STARLINK-35870",
        "group": "last-30-days",
        "lat": -16.182824708031273,
        "lon": -53.61719775140013,
        "alt_km": 415.784014208838,
        "timestamp": "2025-12-14T22:38:39.516929+00:00",
        "meta_object_name": "STARLINK-35870",
        "meta_object_id": "2025-268R",
        "meta_epoch": "2025-12-14T01:40:20.415072",
        "meta_mean_motion": 15.50575688,
        "meta_eccentricity": 8.286e-05,
        "meta_inclination": 42.999,
        "meta_ra_of_asc_node": 113.3503,
        "meta_arg_of_pericenter": 263.4028,
        "meta_mean_anomaly": 96.6738,
        "meta_ephemeris_type": 0,
        "meta_classification_type": "U",
        "meta_norad_cat_id": 66572,
        "meta_element_set_no": 999,
        "meta_rev_at_epoch": 483,
        "meta_bstar": 0.0021023869,
        "meta_mean_motion_dot": 0.00124968,
        "meta_mean_motion_ddot": 0,
        "tle_line1": "1 66572U 25268R   25348.06968073  .00124968  00000+0  21024-2 0  9990",
        "tle_line2": "2 66572  42.9990 113.3503 0000828 263.4028  96.6738 15.50575688  4834"
      },
      "geometry": {
        "type": "Point",
        "coordinates": [
          -53.61719775140013,
          -16.182824708031273
        ]
      }
    },
    {
      "type": "Feature",
      "properties": {
        "norad_id": 66573,
        "name": "STARLINK-35650",
        "group": "last-30-days",
        "lat": -17.384112653554148,
        "lon": -52.13798441222898,
        "alt_km": 416.38772093091666,
        "timestamp": "2025-12-14T22:38:39.516939+00:00",
        "meta_object_name": "STARLINK-35650",
        "meta_object_id": "2025-268S",
        "meta_epoch": "2025-12-14T01:39:50.663232",
        "meta_mean_motion": 15.50566618,
        "meta_eccentricity": 7.82e-05,
        "meta_inclination": 42.9994,
        "meta_ra_of_asc_node": 113.345,
        "meta_arg_of_pericenter": 308.7789,
        "meta_mean_anomaly": 51.3001,
        "meta_ephemeris_type": 0,
        "meta_classification_type": "U",
        "meta_norad_cat_id": 66573,
        "meta_element_set_no": 999,
        "meta_rev_at_epoch": 483,
        "meta_bstar": 0.0018861975,
        "meta_mean_motion_dot": 0.00111857,
        "meta_mean_motion_ddot": 0,
        "tle_line1": "1 66573U 25268S   25348.06933638  .00111857  00000+0  18862-2 0  9999",
        "tle_line2": "2 66573  42.9994 113.3450 0000782 308.7789  51.3001 15.50566618  4830"
      },
      "geometry": {
        "type": "Point",
        "coordinates": [
          -52.13798441222898,
          -17.384112653554148
        ]
      }
    },
    {
      "type": "Feature",
      "properties": {
        "norad_id": 66574,
        "name": "STARLINK-35812",
        "group": "last-30-days",
        "lat": -18.63297769408213,
        "lon": -50.56097206755223,
        "alt_km": 416.15177708518513,
        "timestamp": "2025-12-14T22:38:39.516951+00:00",
        "meta_object_name": "STARLINK-35812",
        "meta_object_id": "2025-268T",
        "meta_epoch": "2025-12-14T01:39:20.923488",
        "meta_mean_motion": 15.50571155,
        "meta_eccentricity": 0.00014446,
        "meta_inclination": 42.9999,
        "meta_ra_of_asc_node": 113.3431,
        "meta_arg_of_pericenter": 286.1846,
        "meta_mean_anomaly": 73.8855,
        "meta_ephemeris_type": 0,
        "meta_classification_type": "U",
        "meta_norad_cat_id": 66574,
        "meta_element_set_no": 999,
        "meta_rev_at_epoch": 483,
        "meta_bstar": 0.002097662,
        "meta_mean_motion_dot": 0.00124662,
        "meta_mean_motion_ddot": 0,
        "tle_line1": "1 66574U 25268T   25348.06899217  .00124662  00000+0  20977-2 0  9992",
        "tle_line2": "2 66574  42.9999 113.3431 0001444 286.1846  73.8855 15.50571155  4832"
      },
      "geometry": {
        "type": "Point",
        "coordinates": [
          -50.56097206755223,
          -18.63297769408213
        ]
      }
    },
    {
      "type": "Feature",
      "properties": {
        "norad_id": 66575,
        "name": "STARLINK-35810",
        "group": "last-30-days",
        "lat": -19.84600074161312,
        "lon": -48.99025721255513,
        "alt_km": 416.3161969453804,
        "timestamp": "2025-12-14T22:38:39.516961+00:00",
        "meta_object_name": "STARLINK-35810",
        "meta_object_id": "2025-268U",
        "meta_epoch": "2025-12-14T01:38:51.479232",
        "meta_mean_motion": 15.50571534,
        "meta_eccentricity": 7.343e-05,
        "meta_inclination": 42.9994,
        "meta_ra_of_asc_node": 113.3403,
        "meta_arg_of_pericenter": 288.2643,
        "meta_mean_anomaly": 71.8137,
        "meta_ephemeris_type": 0,
        "meta_classification_type": "U",
        "meta_norad_cat_id": 66575,
        "meta_element_set_no": 999,
        "meta_rev_at_epoch": 483,
        "meta_bstar": 0.0020886687,
        "meta_mean_motion_dot": 0.00124118,
        "meta_mean_motion_ddot": 0,
        "tle_line1": "1 66575U 25268U   25348.06865138  .00124118  00000+0  20887-2 0  9994",
        "tle_line2": "2 66575  42.9994 113.3403 0000734 288.2643  71.8137 15.50571534  4838"
      },
      "geometry": {
        "type": "Point",
        "coordinates": [
          -48.99025721255513,
          -19.84600074161312
        ]
      }
    },
    {
      "type": "Feature",
      "properties": {
        "norad_id": 66576,
        "name": "STARLINK-35814",
        "group": "last-30-days",
        "lat": -21.05608093631178,
        "lon": -47.38065217226129,
        "alt_km": 416.2447166421571,
        "timestamp": "2025-12-14T22:38:39.516971+00:00",
        "meta_object_name": "STARLINK-35814",
        "meta_object_id": "2025-268V",
        "meta_epoch": "2025-12-14T01:38:21.809472",
        "meta_mean_motion": 15.50577135,
        "meta_eccentricity": 6.713e-05,
        "meta_inclination": 42.9992,
        "meta_ra_of_asc_node": 113.3375,
        "meta_arg_of_pericenter": 268.1794,
        "meta_mean_anomaly": 91.8989,
        "meta_ephemeris_type": 0,
        "meta_classification_type": "U",
        "meta_norad_cat_id": 66576,
        "meta_element_set_no": 999,
        "meta_rev_at_epoch": 483,
        "meta_bstar": 0.0020849721,
        "meta_mean_motion_dot": 0.0012392,
        "meta_mean_motion_ddot": 0,
        "tle_line1": "1 66576U 25268V   25348.06830798  .00123920  00000+0  20850-2 0  9999",
        "tle_line2": "2 66576  42.9992 113.3375 0000671 268.1794  91.8989 15.50577135  4839"
      },
      "geometry": {
        "type": "Point",
        "coordinates": [
          -47.38065217226129,
          -21.05608093631178
        ]
      }
    }
  ]
}